{
  "norad_id": 64235,
  "name": "STARLINK-11675 [DTC]",
  "history": [
    {
      "epoch": "2026-04-11T18:00:46.002816Z",
      "apogee_km": 358.86047053436414,
      "perigee_km": 353.5255343064473,
      "latitude_deg": -3.4315037014533154e-06,
      "longitude_deg": -100.2611190080249,
      "height_km": 355.0369828582785,
      "semi_major_axis_km": 6734.330002420405,
      "eccentricity": 0.0003961,
      "inclination_deg": 42.9996,
      "raan_deg": 9.8961,
      "arg_perigee_deg": 290.407,
      "mean_anomaly_deg": 69.6372,
      "mean_motion_rev_day": 15.70945688
    },
    {
      "epoch": "2026-04-13T00:31:57.887328Z",
      "apogee_km": 356.72451780581105,
      "perigee_km": 356.12069719140345,
      "latitude_deg": -1.7921087144369967e-05,
      "longitude_deg": 153.0203353105984,
      "height_km": 356.29621281846437,
      "semi_major_axis_km": 6734.559607498607,
      "eccentricity": 4.483e-05,
      "inclination_deg": 42.9988,
      "raan_deg": 2.2305,
      "arg_perigee_deg": 250.2163,
      "mean_anomaly_deg": 109.8656,
      "mean_motion_rev_day": 15.7086535
    },
    {
      "epoch": "2026-04-13T23:25:21.461376Z",
      "apogee_km": 357.1343940512206,
      "perigee_km": 355.8103698467294,
      "latitude_deg": 2.8221080064428394e-05,
      "longitude_deg": 162.98130584160523,
      "height_km": 356.86223193055616,
      "semi_major_axis_km": 6734.609381948974,
      "eccentricity": 9.83e-05,
      "inclination_deg": 42.9985,
      "raan_deg": 356.4797,
      "arg_perigee_deg": 200.8609,
      "mean_anomaly_deg": 159.2219,
      "mean_motion_rev_day": 15.70847935
    },
    {
      "epoch": "2026-04-15T16:37:27.933024Z",
      "apogee_km": 358.3736079157243,
      "perigee_km": 354.5160394471186,
      "latitude_deg": 1.6778249381486433e-05,
      "longitude_deg": -107.08436635839108,
      "height_km": 356.52838094130016,
      "semi_major_axis_km": 6734.581823681421,
      "eccentricity": 0.0002864,
      "inclination_deg": 43.0018,
      "raan_deg": 346.1331,
      "arg_perigee_deg": 260.754,
      "mean_anomaly_deg": 99.3004,
      "mean_motion_rev_day": 15.70857577
    },
    {
      "epoch": "2026-04-16T01:46:49.787904Z",
      "apogee_km": 357.61512205164036,
      "perigee_km": 355.26192667191754,
      "latitude_deg": -2.4711075278047272e-05,
      "longitude_deg": 112.90080169054369,
      "height_km": 356.37410980767766,
      "semi_major_axis_km": 6734.575524361779,
      "eccentricity": 0.00017471,
      "inclination_deg": 43.0005,
      "raan_deg": 343.8354,
      "arg_perigee_deg": 262.0449,
      "mean_anomaly_deg": 98.022,
      "mean_motion_rev_day": 15.70859781
    },
    {
      "epoch": "2026-04-17T22:02:03.522048Z",
      "apogee_km": 356.8181294506612,
      "perigee_km": 355.9605548662503,
      "latitude_deg": 1.701211433542903e-05,
      "longitude_deg": 156.15918379359076,
      "height_km": 356.51553269795943,
      "semi_major_axis_km": 6734.526342158455,
      "eccentricity": 6.367e-05,
      "inclination_deg": 42.9953,
      "raan_deg": 332.7184,
      "arg_perigee_deg": 214.0489,
      "mean_anomaly_deg": 146.0338,
      "mean_motion_rev_day": 15.70876989
    },
    {
      "epoch": "2026-04-18T14:49:12.354240Z",
      "apogee_km": 357.8149763025558,
      "perigee_km": 354.8450763439487,
      "latitude_deg": -5.4368970603584825e-06,
      "longitude_deg": -100.53140862316062,
      "height_km": 356.2427022111939,
      "semi_major_axis_km": 6734.467026323252,
      "eccentricity": 0.0002205,
      "inclination_deg": 42.9998,
      "raan_deg": 328.504,
      "arg_perigee_deg": 264.6034,
      "mean_anomaly_deg": 95.4582,
      "mean_motion_rev_day": 15.70897743
    },
    {
      "epoch": "2026-04-19T21:20:24.922176Z",
      "apogee_km": 356.9079511865739,
      "perigee_km": 355.7859861573934,
      "latitude_deg": 1.1866506600265992e-05,
      "longitude_deg": 152.74522396684708,
      "height_km": 355.91149311197967,
      "semi_major_axis_km": 6734.483968671983,
      "eccentricity": 8.33e-05,
      "inclination_deg": 42.9981,
      "raan_deg": 320.8364,
      "arg_perigee_deg": 291.6739,
      "mean_anomaly_deg": 68.404,
      "mean_motion_rev_day": 15.70891815
    },
    {
      "epoch": "2026-04-20T06:29:46.720032Z",
      "apogee_km": 357.83404578458794,
      "perigee_km": 354.95032038839054,
      "latitude_deg": 3.094636402782419e-05,
      "longitude_deg": 12.72829335966813,
      "height_km": 355.3454363952465,
      "semi_major_axis_km": 6734.529183086489,
      "eccentricity": 0.0002141,
      "inclination_deg": 42.9986,
      "raan_deg": 318.5363,
      "arg_perigee_deg": 304.6332,
      "mean_anomaly_deg": 55.4334,
      "mean_motion_rev_day": 15.70875995
    },
    {
      "epoch": "2026-04-21T20:00:01.999008Z",
      "apogee_km": 357.57966019815103,
      "perigee_km": 355.4272691056485,
      "latitude_deg": -18.68408564264437,
      "longitude_deg": 0.348331144751211,
      "height_km": 359.8174680906417,
      "semi_major_axis_km": 6734.6404646518995,
      "eccentricity": 0.0001598,
      "inclination_deg": 43.0003,
      "raan_deg": 309.1229,
      "arg_perigee_deg": 258.1209,
      "mean_anomaly_deg": 309.6683,
      "mean_motion_rev_day": 15.7083706
    },
    {
      "epoch": "2026-04-22T00:00:02.000160Z",
      "apogee_km": 357.7572410204948,
      "perigee_km": 355.4736211661602,
      "latitude_deg": 40.43140091908414,
      "longitude_deg": 163.3434343651292,
      "height_km": 360.2500989880402,
      "semi_major_axis_km": 6734.752431093328,
      "eccentricity": 0.00016954,
      "inclination_deg": 43.0006,
      "raan_deg": 308.1176,
      "arg_perigee_deg": 265.9556,
      "mean_anomaly_deg": 165.469,
      "mean_motion_rev_day": 15.70797887
    },
    {
      "epoch": "2026-04-22T21:03:43.642080Z",
      "apogee_km": 357.349226024211,
      "perigee_km": 354.8494774904393,
      "latitude_deg": 4.0721462454528106e-06,
      "longitude_deg": 135.95779655436775,
      "height_km": 355.3415826741798,
      "semi_major_axis_km": 6734.236351757325,
      "eccentricity": 0.0001856,
      "inclination_deg": 42.9992,
      "raan_deg": 302.8225,
      "arg_perigee_deg": 295.1112,
      "mean_anomaly_deg": 64.9563,
      "mean_motion_rev_day": 15.70978458
    },
    {
      "epoch": "2026-04-24T20:22:04.123776Z",
      "apogee_km": 357.6052126434615,
      "perigee_km": 355.28178237182146,
      "latitude_deg": -5.51402531117938e-07,
      "longitude_deg": 132.55097275601105,
      "height_km": 356.25355298732904,
      "semi_major_axis_km": 6734.580497507642,
      "eccentricity": 0.0001725,
      "inclination_deg": 42.9983,
      "raan_deg": 290.9438,
      "arg_perigee_deg": 268.1479,
      "mean_anomaly_deg": 91.9191,
      "mean_motion_rev_day": 15.70858041
    },
    {
      "epoch": "2026-04-25T11:37:39.620640Z",
      "apogee_km": 358.0469401464243,
      "perigee_km": 354.2461105247248,
      "latitude_deg": 3.293742251507263e-05,
      "longitude_deg": -100.80549548908571,
      "height_km": 355.9944872441573,
      "semi_major_axis_km": 6734.283525335574,
      "eccentricity": 0.0002822,
      "inclination_deg": 43.0001,
      "raan_deg": 287.1119,
      "arg_perigee_deg": 267.7538,
      "mean_anomaly_deg": 92.3007,
      "mean_motion_rev_day": 15.70961951
    }
  ]
}